[{"OBJECT_NAME":"STARLINK-30409","OBJECT_ID":"2023-138N","EPOCH":"2026-03-09T11:56:03.295968","MEAN_MOTION":15.26737941,"ECCENTRICITY":0.00010124,"INCLINATION":42.9995,"RA_OF_ASC_NODE":234.836,"ARG_OF_PERICENTER":276.786,"MEAN_ANOMALY":83.2876,"EPHEMERIS_TYPE":0,"CLASSIFICATION_TYPE":"U","NORAD_CAT_ID":57820,"ELEMENT_SET_NO":999,"REV_AT_EPOCH":13865,"BSTAR":5.3562962e-5,"MEAN_MOTION_DOT":1.177e-5,"MEAN_MOTION_DDOT":0},{"OBJECT_NAME":"CZ-2C DEB","OBJECT_ID":"2011-030E","EPOCH":"2026-03-09T22:02:28.057920","MEAN_MOTION":15.23147202,"ECCENTRICITY":0.00216086,"INCLINATION":98.1958,"RA_OF_ASC_NODE":48.5667,"ARG_OF_PERICENTER":313.6999,"MEAN_ANOMALY":74.4133,"EPHEMERIS_TYPE":0,"CLASSIFICATION_TYPE":"U","NORAD_CAT_ID":37734,"ELEMENT_SET_NO":999,"REV_AT_EPOCH":78227,"BSTAR":0.0029824689,"MEAN_MOTION_DOT":0.00071429,"MEAN_MOTION_DDOT":0}]
